COSMOS 2576             
1 59773U 24092A   26068.82603826  .00015211  00000+0  56283-3 0  9991
2 59773  97.4253 186.0053 0005946 159.7731 200.3745 15.27760963101271
STARLINK-35467          
1 66343U 25253AA  26068.44083973  .00032410  00000+0  11817-2 0  9998
2 66343  43.0020 214.1513 0003308 304.5350  55.5189 15.27587843 20201
